[{"OBJECT_NAME":"KUIPER-00134","OBJECT_ID":"2025-228P","EPOCH":"2026-03-09T23:25:39.467136","MEAN_MOTION":15.38627825,"ECCENTRICITY":0.00043719,"INCLINATION":51.8757,"RA_OF_ASC_NODE":318.9949,"ARG_OF_PERICENTER":326.8594,"MEAN_ANOMALY":33.2119,"EPHEMERIS_TYPE":0,"CLASSIFICATION_TYPE":"U","NORAD_CAT_ID":65960,"ELEMENT_SET_NO":999,"REV_AT_EPOCH":2383,"BSTAR":0.00094701326,"MEAN_MOTION_DOT":0.00036491,"MEAN_MOTION_DDOT":0},{"OBJECT_NAME":"SL-3 R\/B","OBJECT_ID":"1981-046B","EPOCH":"2026-03-09T21:56:30.935616","MEAN_MOTION":15.42002593,"ECCENTRICITY":0.00195542,"INCLINATION":81.2298,"RA_OF_ASC_NODE":289.4744,"ARG_OF_PERICENTER":21.5372,"MEAN_ANOMALY":338.6689,"EPHEMERIS_TYPE":0,"CLASSIFICATION_TYPE":"U","NORAD_CAT_ID":12465,"ELEMENT_SET_NO":999,"REV_AT_EPOCH":43846,"BSTAR":0.00031641117,"MEAN_MOTION_DOT":0.00013615,"MEAN_MOTION_DDOT":0}]
